*******************************************************************************
 Revised: Sep 10, 2019            Rosalind / (Uranus)                       713

 SATELLITE PHYSICAL PROPERTIES:
  Radius (km)           = 29 +- 4           Density (g cm^-3)   =
  Mass (10^20 kg )      =                   Geometric Albedo    =   0.07 
                                            V(1,0)              =  +9.8

 SATELLITE ORBITAL DATA:
  Semi-major axis, a (km) =  69.927 (10^3)  Orbital period      =  0.558459 d
  Eccentricity, e         =   0.000         Rotational period   = 
  Inclination, i  (deg)   =   0.3
*******************************************************************************
 
 
*******************************************************************************
Ephemeris / WWW_USER Fri Jun 19 18:49:56 2020 Pasadena, USA      / Horizons
*******************************************************************************
Target body name: Rosalind (713)                  {source: ura115}
Center body name: Solar System Barycenter (0)     {source: DE431mx}
Center-site name: BODY CENTER
*******************************************************************************
Start time      : A.D. 1982-Jan-31 00:00:00.0000 TDB
Stop  time      : A.D. 2052-Mar-04 00:00:00.0000 TDB
Step-size       : 7200 minutes
*******************************************************************************
Center geodetic : 0.00000000,0.00000000,0.0000000 {E-lon(deg),Lat(deg),Alt(km)}
Center cylindric: 0.00000000,0.00000000,0.0000000 {E-lon(deg),Dxy(km),Dz(km)}
Center radii    : (undefined)                                                  
Output units    : AU-D
Output type     : GEOMETRIC cartesian states
Output format   : 2 (position and velocity)
Reference frame : Ecliptic of J2000.0
*******************************************************************************
            JDTDB,            Calendar Date (TDB),        delta-T,                      X,                      Y,                      Z,                     VX,                     VY,                     VZ,
******************************************************************************************************************************************************************************************************************
$$SOE
2458860.500000000, A.D. 2020-Jan-12 00:00:00.0000,      69.184222,  1.619693354727719E+01,  1.141973476268727E+01, -1.675004313851545E-01, -3.396859539308052E-03,  2.565485959535563E-03, -5.081879542329738E-03,
2458865.500000000, A.D. 2020-Jan-17 00:00:00.0000,      69.184366,  1.618545828432602E+01,  1.143490180877238E+01, -1.671593727823369E-01, -1.896893379722236E-03,  2.226018128436081E-03, -5.142151460466424E-03,
2458870.500000000, A.D. 2020-Jan-22 00:00:00.0000,      69.184509,  1.617392886373659E+01,  1.145006576538154E+01, -1.668231661234812E-01, -4.319257604602732E-04,  1.955672950042537E-03, -4.757575064197688E-03,
2458875.500000000, A.D. 2020-Jan-27 00:00:00.0000,      69.184648,  1.616234705224234E+01,  1.146522487065607E+01, -1.665016877679269E-01,  8.728016380348588E-04,  1.777340630760841E-03, -3.960856320195017E-03,
2458880.500000000, A.D. 2020-Feb-01 00:00:00.0000,      69.184782,  1.615071939018575E+01,  1.148037617422748E+01, -1.662058217042872E-01,  1.904372119310351E-03,  1.706206296507121E-03, -2.820896435904764E-03,
2458885.500000000, A.D. 2020-Feb-06 00:00:00.0000,      69.184909,  1.613905395237759E+01,  1.149551684307000E+01, -1.659431680231724E-01,  2.574284335130515E-03,  1.748101943283021E-03, -1.435571424473407E-03,
2458890.500000000, A.D. 2020-Feb-11 00:00:00.0000,      69.185027,  1.612736036817172E+01,  1.151064413577978E+01, -1.657182395318059E-01,  2.824993062332108E-03,  1.899251055700179E-03,  7.672253754837853E-05,
2458895.500000000, A.D. 2020-Feb-16 00:00:00.0000,      69.185138,  1.611565137775606E+01,  1.152575496658363E+01, -1.655330838923769E-01,  2.634663659943456E-03,  2.146362218862683E-03,  1.585347170467640E-03,
2458900.500000000, A.D. 2020-Feb-21 00:00:00.0000,      69.185242,  1.610393680851947E+01,  1.154084745063004E+01, -1.653856882831061E-01,  2.019613806113040E-03,  2.468102555125265E-03,  2.961818698121419E-03,
2458905.500000000, A.D. 2020-Feb-26 00:00:00.0000,      69.185337,  1.609222833720802E+01,  1.155591971944536E+01, -1.652710097714181E-01,  1.032122189231076E-03,  2.836614012822731E-03,  4.087404393837062E-03,
2458910.500000000, A.D. 2020-Mar-02 00:00:00.0000,      69.185421,  1.608053439199890E+01,  1.157097099188768E+01, -1.651812592354760E-01, -2.432359557972596E-04,  3.220080841268221E-03,  4.865805164379853E-03,
2458915.500000000, A.D. 2020-Mar-07 00:00:00.0000,      69.185493,  1.606886034962566E+01,  1.158600143017447E+01, -1.651066654261123E-01, -1.697660388350532E-03,  3.585526579958702E-03,  5.230628443336043E-03,
2458920.500000000, A.D. 2020-Mar-12 00:00:00.0000,      69.185552,  1.605721063522833E+01,  1.160101173393618E+01, -1.650350949570781E-01, -3.206102684215640E-03,  3.901158300212937E-03,  5.149734386321213E-03,
2458925.500000000, A.D. 2020-Mar-17 00:00:00.0000,      69.185601,  1.604558376756649E+01,  1.161600366661851E+01, -1.649560190622197E-01, -4.639997871393719E-03,  4.139906817028335E-03,  4.630653850715787E-03,
2458930.500000000, A.D. 2020-Mar-22 00:00:00.0000,      69.185639,  1.603397689134395E+01,  1.163097947428654E+01, -1.648576404286285E-01, -5.876154751526781E-03,  4.280909490558565E-03,  3.717283758427581E-03,
2458935.500000000, A.D. 2020-Mar-27 00:00:00.0000,      69.185666,  1.602238330231177E+01,  1.164594187923196E+01, -1.647307769370270E-01, -6.808622489859801E-03,  4.311880963303368E-03,  2.488251838213106E-03,
2458940.500000000, A.D. 2020-Apr-01 00:00:00.0000,      69.185679,  1.601079362330872E+01,  1.166089376718417E+01, -1.645692746753040E-01, -7.357950857866961E-03,  4.230052413836261E-03,  1.049069950176387E-03,
2458945.500000000, A.D. 2020-Apr-06 00:00:00.0000,      69.185678,  1.599919749766168E+01,  1.167583815007659E+01, -1.643676626597261E-01, -7.476202022026274E-03,  4.042035880471789E-03, -4.767593675661144E-04,
2458950.500000000, A.D. 2020-Apr-11 00:00:00.0000,      69.185664,  1.598758346166989E+01,  1.169077736350297E+01, -1.641270471554423E-01, -7.154403731953291E-03,  3.764009073544319E-03, -1.958157912416510E-03,
2458955.500000000, A.D. 2020-Apr-16 00:00:00.0000,      69.185639,  1.597594012090984E+01,  1.170571363196152E+01, -1.638492625773712E-01, -6.419883234807166E-03,  3.419563635685143E-03, -3.267844498472338E-03,
2458960.500000000, A.D. 2020-Apr-21 00:00:00.0000,      69.185604,  1.596425745947072E+01,  1.172064829123350E+01, -1.635403898245211E-01, -5.336162270307962E-03,  3.038184892062784E-03, -4.293083547743229E-03,
2458965.500000000, A.D. 2020-Apr-26 00:00:00.0000,      69.185557,  1.595252792119183E+01,  1.173558167156456E+01, -1.632098472259690E-01, -3.996969906944418E-03,  2.652490116804051E-03, -4.946230470313912E-03,
2458970.500000000, A.D. 2020-May-01 00:00:00.0000,      69.185498,  1.594074540418248E+01,  1.175051381176161E+01, -1.628669168969273E-01, -2.516943767983612E-03,  2.295360924799258E-03, -5.170717940338146E-03,
2458975.500000000, A.D. 2020-May-06 00:00:00.0000,      69.185427,  1.592890909617856E+01,  1.176544312709505E+01, -1.625242169722637E-01, -1.024142340078461E-03,  1.997332447856111E-03, -4.948098941385782E-03,
2458980.500000000, A.D. 2020-May-11 00:00:00.0000,      69.185344,  1.591701949038316E+01,  1.178036796471689E+01, -1.621928018106137E-01,  3.534248752651672E-04,  1.783770612940496E-03, -4.297163283763801E-03,
2458985.500000000, A.D. 2020-May-16 00:00:00.0000,      69.185254,  1.590508116347943E+01,  1.179528585880823E+01, -1.618831801020018E-01,  1.497187577334600E-03,  1.672847383221988E-03, -3.273748180229611E-03,
2458990.500000000, A.D. 2020-May-21 00:00:00.0000,      69.185155,  1.589310252103585E+01,  1.181019373470777E+01, -1.616041757419846E-01,  2.308894440957029E-03,  1.673772295086163E-03, -1.966302913968069E-03,
2458995.500000000, A.D. 2020-May-26 00:00:00.0000,      69.185049,  1.588109169669063E+01,  1.182508898328451E+01, -1.613617104556375E-01,  2.718758042787480E-03,  1.786370471006004E-03, -4.861427276158395E-04,
2459000.500000000, A.D. 2020-May-31 00:00:00.0000,      69.184934,  1.586906132516838E+01,  1.183996845930169E+01, -1.611584745030139E-01,  2.691352308563110E-03,  2.000659337967820E-03,  1.038852565146627E-03,
2459005.500000000, A.D. 2020-Jun-05 00:00:00.0000,      69.184811,  1.585702198001667E+01,  1.185482986628253E+01, -1.609942669608660E-01,  2.228718653491743E-03,  2.298150156457640E-03,  2.478495976307633E-03,
2459010.500000000, A.D. 2020-Jun-10 00:00:00.0000,      69.184682,  1.584498449354686E+01,  1.186967136323302E+01, -1.608652108920416E-01,  1.370048712958110E-03,  2.653171857825906E-03,  3.709323702553975E-03,
2459015.500000000, A.D. 2020-Jun-15 00:00:00.0000,      69.184550,  1.583295920730696E+01,  1.188449172723819E+01, -1.607637467911153E-01,  1.891973748298240E-04,  3.034886191827482E-03,  4.625272306542427E-03,
2459020.500000000, A.D. 2020-Jun-20 00:00:00.0000,      69.184415,  1.582095218906883E+01,  1.189929074632404E+01, -1.606817308908463E-01, -1.213522304457230E-03,  3.410556421195999E-03,  5.148226026635973E-03,
2459025.500000000, A.D. 2020-Jun-25 00:00:00.0000,      69.184277,  1.580896860711134E+01,  1.191406897399864E+01, -1.606069587699971E-01, -2.717409393297998E-03,  3.747493609543757E-03,  5.232577913433778E-03,
2459030.500000000, A.D. 2020-Jun-30 00:00:00.0000,      69.184137,  1.579700904693167E+01,  1.192882776587169E+01, -1.605286299600084E-01, -4.194012774259947E-03,  4.016683217394438E-03,  4.871392096231827E-03,
2459035.500000000, A.D. 2020-Jul-05 00:00:00.0000,      69.183993,  1.578507104067848E+01,  1.194356920111614E+01, -1.604355368466722E-01, -5.516868660072080E-03,  4.194776229664758E-03,  4.095459733744059E-03,
